GLOBALSTAR M090         
1 38044U 11080E   21281.93636128 -.00000085  00000-0  10253-3 0  9999
2 38044  51.9868 141.9874 0000883  95.0793   8.6509 12.62267703453471
GLOBALSTAR M086         
1 38045U 11080F   21281.86414495 -.00000081  00000-0  12811-3 0  9991
2 38045  51.9880 142.6546 0000787 188.7423 186.1505 12.62267556453411
ZIYUAN 3-1 (ZY 3-1)     
1 38046U 12001A   21282.17246787  .00001759  00000-0  81598-4 0  9999
2 38046  97.3719 353.8749 0001313 355.4520  56.5214 15.21334632541407
FENGYUN 2F              
1 38049U 12002A   21282.16892225 -.00000359  00000-0  00000+0 0  9996
2 38049   3.1800  81.4326 0002294  10.0952  99.4621  1.00278228 35724
WGS F4 (USA 233)        
1 38070U 12003A   21282.05454494 -.00000217  00000-0  00000+0 0  9994
2 38070   0.0035 211.9562 0000194 288.7432 345.2659  1.00270583 35550
LARES                   
1 38077U 12006A   21281.80829936 -.00000028  00000-0  62296-4 0  9993
2 38077  69.4963 337.1390 0011086 226.5986 133.4121 12.54930988442334
SES-4                   
1 38087U 12007A   21281.67357609 -.00000170  00000-0  00000-0 0  9992
2 38087   0.0211 276.4218 0002455 278.5973  43.0074  1.00270510 35067
BEIDOU 11               
1 38091U 12008A   21281.91690772  .00000055  00000-0  00000-0 0  9997
2 38091   1.7946  70.2312 0003021 316.3229  19.9985  1.00273273 35304
MUOS-1                  
1 38093U 12009A   21282.06743634 -.00000129  00000-0  00000+0 0  9995
2 38093   2.6961  24.5153 0050584 359.4998 278.1531  1.00273671 35280
INTELSAT 22 (IS-22)     
1 38098U 12011A   21281.87341146 -.00000062  00000-0  00000-0 0  9990
2 38098   0.0212 145.2932 0003110  59.9247 199.0504  1.00272856 34648
APSTAR 7                
1 38107U 12013A   21281.87341146 -.00000104  00000-0  00000-0 0  9990
2 38107   0.0185 205.5514 0002438 353.7177 209.3647  1.00270384 34639
YAHSAT 1B               
1 38245U 12016A   21281.87896552  .00000124  00000-0  00000-0 0  9993
2 38245   0.0185 194.8147 0000672  19.9588 166.9599  1.00267439 28420
BEIDOU 12               
1 38250U 12018A   21281.73765674 -.00000082  00000-0  00000-0 0  9990
2 38250  56.7454   1.8751 0023377 245.1735  41.0293  1.86234455 64391
BEIDOU 13               
1 38251U 12018B   21282.18031112 -.00000084  00000-0  00000+0 0  9995
2 38251  56.6660   1.2017 0014263 244.3706  22.9463  1.86234197 64404
AEHF-2 (USA 235)        
1 38254U 12019A   21281.58897448 -.00000159  00000-0  00000-0 0  9998
2 38254   2.8340  58.1735 0001983 147.6179 297.1771  0.99941285 33687
TIANHUI 1-02            
1 38256U 12020A   21282.16677377  .00001917  00000-0  83053-4 0  9999
2 38256  97.4723  47.7494 0018339  91.6016  31.0481 15.23495189524140
YAOGAN 14               
1 38257U 12021A   21282.16693287  .00002098  00000-0  90746-4 0  9997
2 38257  97.5097  58.4796 0001888 101.4608 250.2836 15.23584982525272
JCSAT-13                
1 38331U 12023A   21281.90652774 -.00000359  00000-0  00000-0 0  9998
2 38331   0.0109 215.6030 0002352 340.3987 272.1234  1.00272316 34362
VINASAT-2               
1 38332U 12023B   21281.99139903 -.00000331  00000-0  00000+0 0  9991
2 38332   0.0116 213.0569 0001884 335.2093 318.3040  1.00271003 34449
GCOM-W1 (SHIZUKU)       
1 38337U 12025A   21281.82507568  .00000138  00000-0  40653-4 0  9993
2 38337  98.2165 220.9164 0000557  61.2812 352.7081 14.57097249499677
ARIRANG-3 (KOMPSAT-3)   
1 38338U 12025B   21282.16225426  .00000128  00000-0  35124-4 0  9998
2 38338  98.1495 220.2681 0012246  81.5747 278.6845 14.61740620501266
SDS-4                   
1 38339U 12025C   21282.09252976  .00000148  00000-0  32877-4 0  9995
2 38339  98.2843 338.0476 0007273 356.8093   3.3065 14.70683234504066
NIMIQ 6                 
1 38342U 12026A   21282.01869830 -.00000176  00000-0  00000+0 0  9995
2 38342   0.0496  84.2189 0002246 100.1934 109.0903  1.00271917 34428
CHINASAT 2A (ZX 2A)     
1 38352U 12028A   21282.24148816 -.00000295  00000-0  00000+0 0  9999
2 38352   0.0149  91.9282 0001557 217.2839 254.0370  1.00268083 34475
YAOGAN 15               
1 38354U 12029A   21282.08952474 -.00000027  00000-0  48372-4 0  9999
2 38354 100.6480  70.6201 0025342 204.3120 155.6789 13.18266245449846
INTELSAT 19 (IS-19)     
1 38356U 12030A   21281.85464097 -.00000058  00000-0  00000+0 0  9991
2 38356   0.0175 231.8745 0003080 327.9592 291.5607  1.00271650 34344
NUSTAR                  
1 38358U 12031A   21281.66229358  .00001455  00000-0  77758-4 0  9992
2 38358   6.0278  34.5170 0012211 303.6757  56.2208 14.88636588507260
ECHOSTAR 17             
1 38551U 12035A   21281.58487523 -.00000077  00000-0  00000-0 0  9994
2 38551   0.0183 194.3747 0002096 353.0438 293.4570  1.00269792 33893
METEOSAT-10 (MSG-3)     
1 38552U 12035B   21281.67985580  .00000061  00000-0  00000-0 0  9993
2 38552   1.2514  21.6206 0001549 191.3374  58.8036  1.00278428 33684
SES-5                   
1 38652U 12036A   21282.23521826  .00000031  00000-0  00000+0 0  9993
2 38652   0.0577 291.4240 0001723 249.9104 286.4137  1.00269854 33900
KANOPUS-V 1             
1 38707U 12039A   21282.03813883  .00002269  00000-0  10850-3 0  9995
2 38707  97.4606 201.3619 0001645  78.2699  17.0411 15.20011527511182
BKA 2                   
1 38708U 12039B   21282.10727455  .00000801  00000-0  39969-4 0  9996
2 38708  97.3470 183.4028 0001711  82.9117  53.5453 15.20268183511202
EXACTVIEW-1 (ADS-1B)    
1 38709U 12039C   21282.09555709  .00000013  00000-0  26117-4 0  9992
2 38709  99.0473 336.8844 0011866  63.5293 296.7101 14.24060906478969
TET-1                   
1 38710U 12039D   21282.07305765  .00011166  00000-0  16045-3 0  9996
2 38710  97.5426 342.1925 0001066 173.7758 186.3510 15.56277936518189
MKA-PN 1                
1 38711U 12039E   21282.11709300  .00000017  00000-0  27496-4 0  9991
2 38711  99.0442 336.3224 0012460  63.7332 296.5124 14.24341490479045
TIANLIAN 1-03           
1 38730U 12040A   21281.61025571  .00000124  00000-0  00000-0 0  9996
2 38730   1.3799  94.7363 0002140 339.2053 183.6067  1.00273294 33810
COSMOS 2481             
1 38733U 12041A   21281.86818644  .00000021  00000-0  83728-4 0  9996
2 38733  82.4731  62.7245 0018317 203.2460 156.7795 12.42386312417200
GONETS-M 3              
1 38734U 12041B   21281.87531861  .00000036  00000-0  18547-3 0  9993
2 38734  82.4742  57.1984 0016182 206.4646 153.5614 12.44821938417687
GONETS-M 4              
1 38736U 12041D   21281.82808726  .00000027  00000-0  11845-3 0  9991
2 38736  82.4779  60.6051 0024774 191.7267 168.3237 12.43825119417492
INTELSAT 20 (IS-20)     
1 38740U 12043A   21282.05053292 -.00000027  00000-0  00000+0 0  9992
2 38740   0.0112 176.4832 0002292   6.9273 281.1898  1.00272008 33666
HYLAS 2                 
1 38741U 12043B   21282.22966132  .00000151  00000-0  00000+0 0  9995
2 38741   0.0243 110.7850 0001744  69.7643 311.2500  1.00270675 33687
EXPRESS-MD2             
1 38745U 12044B   21281.37984106  .00016258  32302-5  40876-3 0  9995
2 38745  49.8634 313.8041 2166575  13.7810 351.3617 11.12501325360337
INTELSAT 21 (IS-21)     
1 38749U 12045A   21281.52286312 -.00000286  00000-0  00000-0 0  9993
2 38749   0.0178 165.8564 0002483  25.4533 316.3195  1.00272506 33369
SPOT 6                  
1 38755U 12047A   21282.17739681  .00000010  00000-0  11876-4 0  9997
2 38755  98.1910 348.3406 0001197 104.2965 255.8374 14.58558233483521
AEROCUBE 4.5A           
1 38767U 12048K   21281.93203002  .00001892  00000-0  15248-3 0  9992
2 38767  64.6661 179.4286 0166555 332.2260  27.0029 14.93086176113218
AEROCUBE 4.5B           
1 38768U 12048L   21282.06372079  .00001709  00000-0  12833-3 0  9993
2 38768  64.6646 138.7705 0157928 327.0042  32.1290 14.97050083113499
METOP-B                 
1 38771U 12049A   21282.12792740  .00000030  00000-0  33875-4 0  9992
2 38771  98.7028 340.7000 0001975  71.7874 341.5050 14.21487475470026
BEIDOU 15               
1 38775U 12050B   21281.95374051  .00000050  00000-0  00000+0 0  9990
2 38775  55.2606 120.1569 0012395 329.2946 343.3462  1.86231371 61773
ASTRA 2F                
1 38778U 12051A   21282.22966132  .00000147  00000-0  00000+0 0  9999
2 38778   0.0613 235.1280 0004349 338.9101 274.9570  1.00275113 33124
GSAT-10                 
1 38779U 12051B   21282.12519163 -.00000168  00000-0  00000+0 0  9991
2 38779   0.0181 143.4995 0002341  67.9089 294.6410  1.00272141 33123
VRSS-1                  
1 38782U 12052A   21282.22237598  .00000157  00000-0  29634-4 0  9992
2 38782  97.6992 328.0527 0018363  53.6251 306.6651 14.76113888486813
NAVSTAR 67 (USA 239)    
1 38833U 12053A   21280.70436097  .00000021  00000-0  00000-0 0  9998
2 38833  53.5579 213.7117 0115616  42.9609 317.9367  2.00558735 65072
GSAT0103 (GALILEO-FM3)  
1 38857U 12055A   21281.06025298  .00000052  00000-0  00000-0 0  9997
2 38857  55.0674 148.6408 0001745 255.5684 104.5272  1.70473729 55802
GSAT0104 (GALILEO-FM4)  
1 38858U 12055B   21279.85762248  .00000054  00000-0  00000-0 0  9997
2 38858  55.0672 148.6753 0000749 111.3035 248.8221  1.70474073 55782
SJ-9A                   
1 38860U 12056A   21282.20539980  .00000244  00000-0  38767-4 0  9995
2 38860  97.6181 312.8319 0030400 111.4023 249.0439 14.79692173485237
SJ-9B                   
1 38861U 12056B   21282.14262814  .00000256  00000-0  38791-4 0  9998
2 38861  97.6318 322.3757 0019596 104.6991 255.6402 14.81672999485581
INTELSAT 23 (IS-23)     
1 38867U 12057A   21281.52373531 -.00000286  00000-0  00000+0 0  9996
2 38867   0.0149 229.6027 0001691 321.3500 321.9885  1.00270617 32934
BEIDOU 16               
1 38953U 12059A   21282.05367277 -.00000178  00000-0  00000+0 0  9993
2 38953   1.3664  84.1305 0009284 281.7462 115.4647  1.00272601 32882
LUCH 5B                 
1 38977U 12061A   21282.18660528 -.00000134  00000-0  00000+0 0  9993
2 38977   6.7496  64.4080 0003796  98.5799 265.9512  1.00271839 33010
